[{"OBJECT_NAME":"OBJECT C","OBJECT_ID":"2023-104C","EPOCH":"2026-03-09T22:39:44.230752","MEAN_MOTION":15.26846312,"ECCENTRICITY":0.00113074,"INCLINATION":97.273,"RA_OF_ASC_NODE":135.3333,"ARG_OF_PERICENTER":3.876,"MEAN_ANOMALY":356.2565,"EPHEMERIS_TYPE":0,"CLASSIFICATION_TYPE":"U","NORAD_CAT_ID":57426,"ELEMENT_SET_NO":999,"REV_AT_EPOCH":14663,"BSTAR":0.00062618506,"MEAN_MOTION_DOT":0.00016495,"MEAN_MOTION_DDOT":0},{"OBJECT_NAME":"STARLINK-30575","OBJECT_ID":"2023-158B","EPOCH":"2026-03-08T16:00:00.999936","MEAN_MOTION":15.27562199,"ECCENTRICITY":0.00017382,"INCLINATION":43.0037,"RA_OF_ASC_NODE":33.1816,"ARG_OF_PERICENTER":277.6806,"MEAN_ANOMALY":288.0882,"EPHEMERIS_TYPE":0,"CLASSIFICATION_TYPE":"U","NORAD_CAT_ID":58052,"ELEMENT_SET_NO":999,"REV_AT_EPOCH":574,"BSTAR":0.00025284576,"MEAN_MOTION_DOT":6.698e-5,"MEAN_MOTION_DDOT":0}]
